[
  {
    "COMMENT": "GENERATED VIA SPACETRACK.ORG API",
    "ORIGINATOR": "18 SPCS",
    "NORAD_CAT_ID": "46469",
    "OBJECT_NAME": "HAIYANG 2C",
    "OBJECT_TYPE": "PAYLOAD",
    "CLASSIFICATION_TYPE": "U",
    "INTLDES": "20066A",
    "EPOCH": "2023-06-03 20:59:47",
    "EPOCH_MICROSECONDS": "768352",
    "MEAN_MOTION": "13.83375144",
    "ECCENTRICITY": "0.0009192",
    "INCLINATION": "65.9961",
    "RA_OF_ASC_NODE": "97.2264",
    "ARG_OF_PERICENTER": "301.4136",
    "MEAN_ANOMALY": "58.6033",
    "EPHEMERIS_TYPE": "0",
    "ELEMENT_SET_NO": "999",
    "REV_AT_EPOCH": "13605",
    "BSTAR": "0.000049082",
    "MEAN_MOTION_DOT": "-0.00000027",
    "MEAN_MOTION_DDOT": "0",
    "FILE": "3924324",
    "TLE_LINE0": "0 HAIYANG 2C",
    "TLE_LINE1": "1 46469U 20066A   23154.87485843 -.00000027  00000-0  49082-4 0  9992",
    "TLE_LINE2": "2 46469  65.9961  97.2264 0009192 301.4136  58.6033 13.83375144136055",
    "OBJECT_ID": "2020-066A",
    "OBJECT_NUMBER": "46469",
    "SEMIMAJOR_AXIS": "7330.077",
    "PERIOD": "104.093",
    "APOGEE": "958.680",
    "PERIGEE": "945.204",
    "DECAYED": "0"
  },
  {
    "COMMENT": "GENERATED VIA SPACETRACK.ORG API",
    "ORIGINATOR": "18 SPCS",
    "NORAD_CAT_ID": "46469",
    "OBJECT_NAME": "HAIYANG 2C",
    "OBJECT_TYPE": "PAYLOAD",
    "CLASSIFICATION_TYPE": "U",
    "INTLDES": "20066A",
    "EPOCH": "2023-06-04 02:12:06",
    "EPOCH_MICROSECONDS": "552864",
    "MEAN_MOTION": "13.83375178",
    "ECCENTRICITY": "0.0009205",
    "INCLINATION": "65.9962",
    "RA_OF_ASC_NODE": "96.6865",
    "ARG_OF_PERICENTER": "301.3851",
    "MEAN_ANOMALY": "58.6317",
    "EPHEMERIS_TYPE": "0",
    "ELEMENT_SET_NO": "999",
    "REV_AT_EPOCH": "13637",
    "BSTAR": "0.000055677",
    "MEAN_MOTION_DOT": "-0.0000002",
    "MEAN_MOTION_DDOT": "0",
    "FILE": "3924435",
    "TLE_LINE0": "0 HAIYANG 2C",
    "TLE_LINE1": "1 46469U 20066A   23155.09174251 -.00000020  00000-0  55677-4 0  9995",
    "TLE_LINE2": "2 46469  65.9962  96.6865 0009205 301.3851  58.6317 13.83375178136371",
    "OBJECT_ID": "2020-066A",
    "OBJECT_NUMBER": "46469",
    "SEMIMAJOR_AXIS": "7330.077",
    "PERIOD": "104.093",
    "APOGEE": "958.689",
    "PERIGEE": "945.194",
    "DECAYED": "0"
  },
  {
    "COMMENT": "GENERATED VIA SPACETRACK.ORG API",
    "ORIGINATOR": "18 SPCS",
    "NORAD_CAT_ID": "46469",
    "OBJECT_NAME": "HAIYANG 2C",
    "OBJECT_TYPE": "PAYLOAD",
    "CLASSIFICATION_TYPE": "U",
    "INTLDES": "20066A",
    "EPOCH": "2023-06-04 09:08:31",
    "EPOCH_MICROSECONDS": "600320",
    "MEAN_MOTION": "13.83375238",
    "ECCENTRICITY": "0.0009222",
    "INCLINATION": "65.9962",
    "RA_OF_ASC_NODE": "95.9665",
    "ARG_OF_PERICENTER": "301.4106",
    "MEAN_ANOMALY": "58.606",
    "EPHEMERIS_TYPE": "0",
    "ELEMENT_SET_NO": "999",
    "REV_AT_EPOCH": "13641",
    "BSTAR": "0.000060662",
    "MEAN_MOTION_DOT": "-0.00000014",
    "MEAN_MOTION_DDOT": "0",
    "FILE": "3924695",
    "TLE_LINE0": "0 HAIYANG 2C",
    "TLE_LINE1": "1 46469U 20066A   23155.38092130 -.00000014  00000-0  60662-4 0  9995",
    "TLE_LINE2": "2 46469  65.9962  95.9665 0009222 301.4106  58.6060 13.83375238136411",
    "OBJECT_ID": "2020-066A",
    "OBJECT_NUMBER": "46469",
    "SEMIMAJOR_AXIS": "7330.077",
    "PERIOD": "104.093",
    "APOGEE": "958.701",
    "PERIGEE": "945.182",
    "DECAYED": "0"
  },
  {
    "COMMENT": "GENERATED VIA SPACETRACK.ORG API",
    "ORIGINATOR": "18 SPCS",
    "NORAD_CAT_ID": "46469",
    "OBJECT_NAME": "HAIYANG 2C",
    "OBJECT_TYPE": "PAYLOAD",
    "CLASSIFICATION_TYPE": "U",
    "INTLDES": "20066A",
    "EPOCH": "2023-06-04 14:20:50",
    "EPOCH_MICROSECONDS": "384832",
    "MEAN_MOTION": "13.83375255",
    "ECCENTRICITY": "0.0009228",
    "INCLINATION": "65.9963",
    "RA_OF_ASC_NODE": "95.4265",
    "ARG_OF_PERICENTER": "301.3897",
    "MEAN_ANOMALY": "58.6268",
    "EPHEMERIS_TYPE": "0",
    "ELEMENT_SET_NO": "999",
    "REV_AT_EPOCH": "13615",
    "BSTAR": "0.000059148",
    "MEAN_MOTION_DOT": "-0.00000016",
    "MEAN_MOTION_DDOT": "0",
    "FILE": "3924842",
    "TLE_LINE0": "0 HAIYANG 2C",
    "TLE_LINE1": "1 46469U 20066A   23155.59780538 -.00000016  00000-0  59148-4 0  9993",
    "TLE_LINE2": "2 46469  65.9963  95.4265 0009228 301.3897  58.6268 13.83375255136155",
    "OBJECT_ID": "2020-066A",
    "OBJECT_NUMBER": "46469",
    "SEMIMAJOR_AXIS": "7330.076",
    "PERIOD": "104.093",
    "APOGEE": "958.706",
    "PERIGEE": "945.177",
    "DECAYED": "0"
  },
  {
    "COMMENT": "GENERATED VIA SPACETRACK.ORG API",
    "ORIGINATOR": "18 SPCS",
    "NORAD_CAT_ID": "46469",
    "OBJECT_NAME": "HAIYANG 2C",
    "OBJECT_TYPE": "PAYLOAD",
    "CLASSIFICATION_TYPE": "U",
    "INTLDES": "20066A",
    "EPOCH": "2023-06-04 19:33:09",
    "EPOCH_MICROSECONDS": "170208",
    "MEAN_MOTION": "13.83375274",
    "ECCENTRICITY": "0.0009232",
    "INCLINATION": "65.9963",
    "RA_OF_ASC_NODE": "94.8865",
    "ARG_OF_PERICENTER": "301.3667",
    "MEAN_ANOMALY": "58.6497",
    "EPHEMERIS_TYPE": "0",
    "ELEMENT_SET_NO": "999",
    "REV_AT_EPOCH": "13647",
    "BSTAR": "0.000054552",
    "MEAN_MOTION_DOT": "-0.00000021",
    "MEAN_MOTION_DDOT": "0",
    "FILE": "3924969",
    "TLE_LINE0": "0 HAIYANG 2C",
    "TLE_LINE1": "1 46469U 20066A   23155.81468947 -.00000021  00000-0  54552-4 0  9995",
    "TLE_LINE2": "2 46469  65.9963  94.8865 0009232 301.3667  58.6497 13.83375274136474",
    "OBJECT_ID": "2020-066A",
    "OBJECT_NUMBER": "46469",
    "SEMIMAJOR_AXIS": "7330.076",
    "PERIOD": "104.093",
    "APOGEE": "958.709",
    "PERIGEE": "945.174",
    "DECAYED": "0"
  },
  {
    "COMMENT": "GENERATED VIA SPACETRACK.ORG API",
    "ORIGINATOR": "18 SPCS",
    "NORAD_CAT_ID": "46469",
    "OBJECT_NAME": "HAIYANG 2C",
    "OBJECT_TYPE": "PAYLOAD",
    "CLASSIFICATION_TYPE": "U",
    "INTLDES": "20066A",
    "EPOCH": "2023-06-04 21:17:15",
    "EPOCH_MICROSECONDS": "429696",
    "MEAN_MOTION": "13.83375284",
    "ECCENTRICITY": "0.0009236",
    "INCLINATION": "65.9963",
    "RA_OF_ASC_NODE": "94.7065",
    "ARG_OF_PERICENTER": "301.3572",
    "MEAN_ANOMALY": "58.6592",
    "EPHEMERIS_TYPE": "0",
    "ELEMENT_SET_NO": "999",
    "REV_AT_EPOCH": "13619",
    "BSTAR": "0.000053163",
    "MEAN_MOTION_DOT": "-0.00000023",
    "MEAN_MOTION_DDOT": "0",
    "FILE": "3925173",
    "TLE_LINE0": "0 HAIYANG 2C",
    "TLE_LINE1": "1 46469U 20066A   23155.88698414 -.00000023  00000-0  53163-4 0  9995",
    "TLE_LINE2": "2 46469  65.9963  94.7065 0009236 301.3572  58.6592 13.83375284136190",
    "OBJECT_ID": "2020-066A",
    "OBJECT_NUMBER": "46469",
    "SEMIMAJOR_AXIS": "7330.076",
    "PERIOD": "104.093",
    "APOGEE": "958.711",
    "PERIGEE": "945.171",
    "DECAYED": "0"
  },
  {
    "COMMENT": "GENERATED VIA SPACETRACK.ORG API",
    "ORIGINATOR": "18 SPCS",
    "NORAD_CAT_ID": "46469",
    "OBJECT_NAME": "HAIYANG 2C",
    "OBJECT_TYPE": "PAYLOAD",
    "CLASSIFICATION_TYPE": "U",
    "INTLDES": "20066A",
    "EPOCH": "2023-06-05 04:13:40",
    "EPOCH_MICROSECONDS": "478016",
    "MEAN_MOTION": "13.83375312",
    "ECCENTRICITY": "0.0009247",
    "INCLINATION": "65.9963",
    "RA_OF_ASC_NODE": "93.9865",
    "ARG_OF_PERICENTER": "301.3788",
    "MEAN_ANOMALY": "58.6375",
    "EPHEMERIS_TYPE": "0",
    "ELEMENT_SET_NO": "999",
    "REV_AT_EPOCH": "13652",
    "BSTAR": "0.000057141",
    "MEAN_MOTION_DOT": "-0.00000018",
    "MEAN_MOTION_DDOT": "0",
    "FILE": "3925287",
    "TLE_LINE0": "0 HAIYANG 2C",
    "TLE_LINE1": "1 46469U 20066A   23156.17616294 -.00000018  00000-0  57141-4 0  9998",
    "TLE_LINE2": "2 46469  65.9963  93.9865 0009247 301.3788  58.6375 13.83375312136528",
    "OBJECT_ID": "2020-066A",
    "OBJECT_NUMBER": "46469",
    "SEMIMAJOR_AXIS": "7330.076",
    "PERIOD": "104.093",
    "APOGEE": "958.719",
    "PERIGEE": "945.163",
    "DECAYED": "0"
  },
  {
    "COMMENT": "GENERATED VIA SPACETRACK.ORG API",
    "ORIGINATOR": "18 SPCS",
    "NORAD_CAT_ID": "46469",
    "OBJECT_NAME": "HAIYANG 2C",
    "OBJECT_TYPE": "PAYLOAD",
    "CLASSIFICATION_TYPE": "U",
    "INTLDES": "20066A",
    "EPOCH": "2023-06-05 09:25:59",
    "EPOCH_MICROSECONDS": "260800",
    "MEAN_MOTION": "13.83375355",
    "ECCENTRICITY": "0.0009255",
    "INCLINATION": "65.9963",
    "RA_OF_ASC_NODE": "93.4465",
    "ARG_OF_PERICENTER": "301.3812",
    "MEAN_ANOMALY": "58.635",
    "EPHEMERIS_TYPE": "0",
    "ELEMENT_SET_NO": "999",
    "REV_AT_EPOCH": "13655",
    "BSTAR": "0.00005893",
    "MEAN_MOTION_DOT": "-0.00000016",
    "MEAN_MOTION_DDOT": "0",
    "FILE": "3925544",
    "TLE_LINE0": "0 HAIYANG 2C",
    "TLE_LINE1": "1 46469U 20066A   23156.39304700 -.00000016  00000-0  58930-4 0  9993",
    "TLE_LINE2": "2 46469  65.9963  93.4465 0009255 301.3812  58.6350 13.83375355136559",
    "OBJECT_ID": "2020-066A",
    "OBJECT_NUMBER": "46469",
    "SEMIMAJOR_AXIS": "7330.076",
    "PERIOD": "104.093",
    "APOGEE": "958.725",
    "PERIGEE": "945.157",
    "DECAYED": "0"
  }
]